[{"OBJECT_NAME":"STARLINK-31373","OBJECT_ID":"2024-031A","EPOCH":"2026-03-09T22:13:51.709152","MEAN_MOTION":15.30181005,"ECCENTRICITY":9.985e-5,"INCLINATION":53.1604,"RA_OF_ASC_NODE":295.2987,"ARG_OF_PERICENTER":93.1111,"MEAN_ANOMALY":267.0004,"EPHEMERIS_TYPE":0,"CLASSIFICATION_TYPE":"U","NORAD_CAT_ID":58965,"ELEMENT_SET_NO":999,"REV_AT_EPOCH":11657,"BSTAR":-1.7124303e-5,"MEAN_MOTION_DOT":-8.66e-6,"MEAN_MOTION_DDOT":0},{"OBJECT_NAME":"OBJECT BC","OBJECT_ID":"2025-313BC","EPOCH":"2026-03-09T04:33:08.504064","MEAN_MOTION":15.29126358,"ECCENTRICITY":0.00084789,"INCLINATION":97.3985,"RA_OF_ASC_NODE":144.811,"ARG_OF_PERICENTER":328.9209,"MEAN_ANOMALY":31.1528,"EPHEMERIS_TYPE":0,"CLASSIFICATION_TYPE":"U","NORAD_CAT_ID":67298,"ELEMENT_SET_NO":999,"REV_AT_EPOCH":789,"BSTAR":0.0026410397,"MEAN_MOTION_DOT":0.00075331,"MEAN_MOTION_DDOT":0}]
